USA 167                 
1 27691U 03008A   26198.60029406 -.00000009  00000+0  00000+0 0  9997
2 27691  11.0203  43.1323 0003515 313.3511  33.2640  1.00270142  7070
USA 169 (MILSTAR-2 4)   
1 27711U 03012A   26198.36930273 -.00000210  00000+0  00000+0 0  9995
2 27711  12.3944  29.5926 0099404  10.3213 180.3782  1.00273139 33250
ASIASAT 4               
1 27718U 03014A   26198.54697394 -.00000234  00000+0  00000+0 0  9994
2 27718   4.7787  75.3623 0002843  40.6527 163.8071  1.00272159 45605
HELLAS-SAT 2            
1 27811U 03020A   26198.40849824 -.00000097  00000+0  00000+0 0  9994
2 27811   7.4279  67.5192 0003755  82.4555 282.2753  1.00271664 43158
THURAYA-2               
1 27825U 03026A   26198.63305032  .00000113  00000+0  00000+0 0  9996
2 27825   8.8845  31.8310 0002463  26.7403 148.7806  1.00272199 84650
OPTUS C1                
1 27831U 03028B   26198.51258472 -.00000165  00000+0  00000+0 0  9995
2 27831   6.9637  69.0389 0005298  43.0769 163.4147  1.00269148 53366
USA 170                 
1 27875U 03040A   26197.74353001  .00000112  00000+0  00000+0 0  9996
2 27875  10.5615  47.6635 0001803  77.5268 101.3138  1.00275557 33293
GALAXY 13 (HORIZONS-1)  
1 27954U 03044A   26198.59466071  .00000122  00000+0  00000+0 0  9995
2 27954   1.4950  83.4714 0002117  34.4184 241.5824  1.00272362 46874
YAMAL 202               
1 28089U 03053A   26198.44283064 -.00000093  00000+0  00000+0 0  9996
2 28089   6.4163  70.5682 0003153  44.8383 142.8074  1.00271757 83006
UFO 11 (USA 174)        
1 28117U 03057A   26198.56802747 -.00000116  00000+0  00000+0 0  9996
2 28117   8.9508  33.6568 0002760  99.0662  82.7130  1.00270747 82750
USA 176 (DSP 22)        
1 28158U 04004A   26198.40069821 -.00000310  00000+0  00000+0 0  9991
2 28158  12.1028  25.8438 0001146 300.0958  64.0335  1.00265193 33247
ABS-4 (MOBISAT-1)       
1 28184U 04007A   26198.63643034  .00000027  00000+0  00000+0 0  9996
2 28184   6.1154  71.6327 0004568  47.8245 106.0789  1.00274030 52646
INTELSAT 10-02          
1 28358U 04022A   26198.62412751 -.00000021  00000+0  00000+0 0  9990
2 28358   0.0556 255.0697 0000219   5.8120 258.2367  1.00270229 80864
ANIK F2                 
1 28378U 04027A   26198.60237407 -.00000061  00000+0  00000+0 0  9992
2 28378   3.3645  79.0384 0003605  33.4073 288.6936  1.00271491 41569
AMC-15                  
1 28446U 04041A   26198.60350075 -.00000098  00000+0  00000+0 0  9991
2 28446   0.0442 283.3869 0002273 191.2229 293.0134  1.00272488 79601
NSS-10                  
1 28526U 05003A   26198.47430730 -.00000264  00000+0  00000+0 0  9996
2 28526   6.5241  70.0826 0002752  40.7349 317.7648  1.00272452 53455
INMARSAT 4-F1           
1 28628U 05009A   26198.37441609  .00000021  00000+0  00000+0 0  9991
2 28628   5.2089  42.7916 0002521  72.1331 133.1513  1.00272595 77976
DIRECTV 8               
1 28659U 05019A   26198.60072741  .00000000  00000+0  00000+0 0  9996
2 28659   0.0222  65.2513 0003092  55.8500 271.5299  1.00270458 77373
GALAXY 28 (G-28)        
1 28702U 05022A   26198.61892749 -.00000211  00000+0  00000+0 0  9993
2 28702   3.3741  78.5562 0002492  31.4507  21.1434  1.00271437 52286
THAICOM 4               
1 28786U 05028A   26198.64800716 -.00000372  00000+0  00000+0 0  9995
2 28786   0.3222  85.5043 0001513  10.1729 192.5541  1.00270912 52553
ANIK F1R                
1 28868U 05036A   26198.60306742 -.00000086  00000+0  00000+0 0  9993
2 28868   4.3887  76.2000 0003900  19.6897 309.3187  1.00271717 46750
SYRACUSE 3A             
1 28885U 05041B   26198.20586692  .00000117  00000+0  00000+0 0  9992
2 28885   4.7156  75.4674 0002827  32.0987 308.2211  1.00270984 76042
INMARSAT 4-F2           
1 28899U 05044A   26198.60854323 -.00000272  00000+0  00000+0 0  9996
2 28899   5.1337  43.6757 0002821  60.0544 194.2621  1.00271469 75828
METEOSAT-9 (MSG-2)      
1 28912U 05049B   26198.20569359  .00000111  00000+0  00000+0 0  9996
2 28912   9.4277  53.8679 0002295 356.6665   4.2059  1.00273115  7306
EUTELSAT 174A           
1 28924U 05052A   26198.51617450 -.00000003  00000+0  00000+0 0  9994
2 28924   4.2937  76.1511 0005923  41.0460 177.8998  1.00271890 52630
ECHOSTAR 10             
1 28935U 06003A   26198.60254741 -.00000065  00000+0  00000+0 0  9991
2 28935   0.0493 285.0864 0001622 148.3131 328.7507  1.00270753 74761
SPAINSAT                
1 28945U 06007A   26198.26433756 -.00000227  00000+0  00000+0 0  9993
2 28945   0.6394  86.0372 0004768  26.1363 247.8565  1.00273319 74514
JCSAT-5A                
1 29045U 06010A   26198.57923397 -.00000338  00000+0  00000+0 0  9991
2 29045   1.1862  83.8730 0001770  24.6524 167.4306  1.00271721 74073
ASTRA 1KR               
1 29055U 06012A   26198.62811420  .00000109  00000+0  00000+0 0  9998
2 29055   0.5507  83.1807 0003386  25.4612  71.9064  1.00271729 46003
GALAXY 16 (G-16)        
1 29236U 06023A   26198.60471409 -.00000136  00000+0  00000+0 0  9999
2 29236   0.0244 150.3278 0002577 325.3288 298.4463  1.00271480 73270
EUTELSAT 33F            
1 29270U 06032A   26198.63088755  .00000145  00000+0  00000+0 0  9997
2 29270   1.7385  81.9016 0003505  31.0063  82.7226  1.00273252 47614
JCSAT-3A                
1 29272U 06033A   26198.56919843 -.00000354  00000+0  00000+0 0  9996
2 29272   0.0430 254.3461 0002162 225.6140 148.3387  1.00272267 48044
