OBJECT_NAME,OBJECT_ID,EPOCH,MEAN_MOTION,ECCENTRICITY,INCLINATION,RA_OF_ASC_NODE,ARG_OF_PERICENTER,MEAN_ANOMALY,EPHEMERIS_TYPE,CLASSIFICATION_TYPE,NORAD_CAT_ID,ELEMENT_SET_NO,REV_AT_EPOCH,BSTAR,MEAN_MOTION_DOT,MEAN_MOTION_DDOT
USA 167,2003-008A,2026-07-17T14:24:25.406784,1.00270142,.00035157,11.0203,43.1323,313.3511,33.2640,0,U,27691,999,707,0,-.9E-7,0
USA 169 (MILSTAR-2 4),2003-012A,2026-07-17T08:51:47.755872,1.00273139,.00994042,12.3944,29.5926,10.3213,180.3782,0,U,27711,999,3325,0,-.21E-5,0
ASIASAT 4,2003-014A,2026-07-17T13:07:38.548416,1.00272159,.00028438,4.7787,75.3623,40.6527,163.8071,0,U,27718,999,4560,0,-.234E-5,0
HELLAS-SAT 2,2003-020A,2026-07-17T09:48:14.247936,1.00271664,.00037553,7.4279,67.5192,82.4555,282.2753,0,U,27811,999,4315,0,-.97E-6,0
THURAYA-2,2003-026A,2026-07-17T15:11:35.547648,1.00272199,.00024638,8.8845,31.8310,26.7403,148.7806,0,U,27825,999,8465,0,.113E-5,0
OPTUS C1,2003-028B,2026-07-17T12:18:07.319808,1.00269148,.00052983,6.9637,69.0389,43.0769,163.4147,0,U,27831,999,5336,0,-.165E-5,0
USA 170,2003-040A,2026-07-16T17:50:40.992864,1.00275557,.00018036,10.5615,47.6635,77.5268,101.3138,0,U,27875,999,3329,0,.112E-5,0
GALAXY 13 (HORIZONS-1),2003-044A,2026-07-17T14:16:18.685344,1.00272362,.00021173,1.4950,83.4714,34.4184,241.5824,0,U,27954,999,4687,0,.122E-5,0
YAMAL 202,2003-053A,2026-07-17T10:37:40.567296,1.00271757,.00031535,6.4163,70.5682,44.8383,142.8074,0,U,28089,999,8300,0,-.93E-6,0
UFO 11 (USA 174),2003-057A,2026-07-17T13:37:57.573408,1.00270747,.00027603,8.9508,33.6568,99.0662,82.7130,0,U,28117,999,8275,0,-.116E-5,0
USA 176 (DSP 22),2004-004A,2026-07-17T09:37:00.325344,1.00265193,.00011468,12.1028,25.8438,300.0958,64.0335,0,U,28158,999,3324,0,-.31E-5,0
ABS-4 (MOBISAT-1),2004-007A,2026-07-17T15:16:27.581376,1.00274030,.00045688,6.1154,71.6327,47.8245,106.0789,0,U,28184,999,5264,0,.27E-6,0
INTELSAT 10-02,2004-022A,2026-07-17T14:58:44.616864,1.00270229,.00002197,0.0556,255.0697,5.8120,258.2367,0,U,28358,999,8086,0,-.21E-6,0
ANIK F2,2004-027A,2026-07-17T14:27:25.119648,1.00271491,.00036052,3.3645,79.0384,33.4073,288.6936,0,U,28378,999,4156,0,-.61E-6,0
AMC-15,2004-041A,2026-07-17T14:29:02.464800,1.00272488,.00022733,0.0442,283.3869,191.2229,293.0134,0,U,28446,999,7960,0,-.98E-6,0
NSS-10,2005-003A,2026-07-17T11:23:00.150720,1.00272452,.00027521,6.5241,70.0826,40.7349,317.7648,0,U,28526,999,5345,0,-.264E-5,0
INMARSAT 4-F1,2005-009A,2026-07-17T08:59:09.550176,1.00272595,.0002521,5.2089,42.7916,72.1331,133.1513,0,U,28628,999,7797,0,.21E-6,0
DIRECTV 8,2005-019A,2026-07-17T14:25:02.848224,1.00270458,.00030929,0.0222,65.2513,55.8500,271.5299,0,U,28659,999,7737,0,0,0
GALAXY 28 (G-28),2005-022A,2026-07-17T14:51:15.335136,1.00271437,.00024924,3.3741,78.5562,31.4507,21.1434,0,U,28702,999,5228,0,-.211E-5,0
THAICOM 4,2005-028A,2026-07-17T15:33:07.818624,1.00270912,.00015139,0.3222,85.5043,10.1729,192.5541,0,U,28786,999,5255,0,-.372E-5,0
ANIK F1R,2005-036A,2026-07-17T14:28:25.025088,1.00271717,.00039001,4.3887,76.2000,19.6897,309.3187,0,U,28868,999,4675,0,-.86E-6,0
SYRACUSE 3A,2005-041B,2026-07-17T04:56:26.901888,1.00270984,.00028273,4.7156,75.4674,32.0987,308.2211,0,U,28885,999,7604,0,.117E-5,0
INMARSAT 4-F2,2005-044A,2026-07-17T14:36:18.135072,1.00271469,.00028211,5.1337,43.6757,60.0544,194.2621,0,U,28899,999,7582,0,-.272E-5,0
METEOSAT-9 (MSG-2),2005-049B,2026-07-17T04:56:11.926176,1.00273115,.0002295,9.4277,53.8679,356.6665,4.2059,0,U,28912,999,730,0,.111E-5,0
EUTELSAT 174A,2005-052A,2026-07-17T12:23:17.476800,1.00271890,.00059236,4.2937,76.1511,41.0460,177.8998,0,U,28924,999,5263,0,-.3E-7,0
ECHOSTAR 10,2006-003A,2026-07-17T14:27:40.096224,1.00270753,.00016229,0.0493,285.0864,148.3131,328.7507,0,U,28935,999,7476,0,-.65E-6,0
SPAINSAT,2006-007A,2026-07-17T06:20:38.765184,1.00273319,.00047685,0.6394,86.0372,26.1363,247.8565,0,U,28945,999,7451,0,-.227E-5,0
JCSAT-5A,2006-010A,2026-07-17T13:54:05.815008,1.00271721,.00017707,1.1862,83.8730,24.6524,167.4306,0,U,29045,999,7407,0,-.338E-5,0
ASTRA 1KR,2006-012A,2026-07-17T15:04:29.066880,1.00271729,.00033867,0.5507,83.1807,25.4612,71.9064,0,U,29055,999,4600,0,.109E-5,0
GALAXY 16 (G-16),2006-023A,2026-07-17T14:30:47.297376,1.00271480,.00025779,0.0244,150.3278,325.3288,298.4463,0,U,29236,999,7327,0,-.136E-5,0
EUTELSAT 33F,2006-032A,2026-07-17T15:08:28.684320,1.00273252,.00035054,1.7385,81.9016,31.0063,82.7226,0,U,29270,999,4761,0,.145E-5,0
JCSAT-3A,2006-033A,2026-07-17T13:39:38.744352,1.00272267,.00021625,0.0430,254.3461,225.6140,148.3387,0,U,29272,999,4804,0,-.354E-5,0
